[{"OBJECT_NAME":"STARLINK-4320","OBJECT_ID":"2022-077S","EPOCH":"2026-03-09T11:34:03.063360","MEAN_MOTION":15.01260038,"ECCENTRICITY":4.368e-5,"INCLINATION":97.6005,"RA_OF_ASC_NODE":250.01,"ARG_OF_PERICENTER":138.228,"MEAN_ANOMALY":221.8978,"EPHEMERIS_TYPE":0,"CLASSIFICATION_TYPE":"U","NORAD_CAT_ID":53059,"ELEMENT_SET_NO":999,"REV_AT_EPOCH":20088,"BSTAR":-2.9316888e-5,"MEAN_MOTION_DOT":-4.35e-6,"MEAN_MOTION_DDOT":0},{"OBJECT_NAME":"PICO-02A021","OBJECT_ID":"2024-149BY","EPOCH":"2026-03-09T03:41:37.126752","MEAN_MOTION":15.02201963,"ECCENTRICITY":0.00041954,"INCLINATION":97.6823,"RA_OF_ASC_NODE":147.908,"ARG_OF_PERICENTER":9.5557,"MEAN_ANOMALY":350.5747,"EPHEMERIS_TYPE":0,"CLASSIFICATION_TYPE":"U","NORAD_CAT_ID":60538,"ELEMENT_SET_NO":999,"REV_AT_EPOCH":8471,"BSTAR":0.00064833457,"MEAN_MOTION_DOT":8.488e-5,"MEAN_MOTION_DDOT":0}]
